[{"OBJECT_NAME":"STARLINK-34495","OBJECT_ID":"2025-129S","EPOCH":"2026-03-09T10:57:54.353376","MEAN_MOTION":14.98342618,"ECCENTRICITY":0.00028,"INCLINATION":70.0016,"RA_OF_ASC_NODE":74.9999,"ARG_OF_PERICENTER":269.7544,"MEAN_ANOMALY":90.3294,"EPHEMERIS_TYPE":0,"CLASSIFICATION_TYPE":"U","NORAD_CAT_ID":64428,"ELEMENT_SET_NO":999,"REV_AT_EPOCH":4125,"BSTAR":0.00045958,"MEAN_MOTION_DOT":5.397e-5,"MEAN_MOTION_DDOT":0},{"OBJECT_NAME":"MACSAT 2 (M 2)","OBJECT_ID":"1990-043B","EPOCH":"2026-03-09T11:52:05.222496","MEAN_MOTION":14.80500759,"ECCENTRICITY":0.0082232,"INCLINATION":89.7421,"RA_OF_ASC_NODE":248.3269,"ARG_OF_PERICENTER":165.3138,"MEAN_ANOMALY":195.0504,"EPHEMERIS_TYPE":0,"CLASSIFICATION_TYPE":"U","NORAD_CAT_ID":20608,"ELEMENT_SET_NO":999,"REV_AT_EPOCH":92364,"BSTAR":0.00023137,"MEAN_MOTION_DOT":1.895e-5,"MEAN_MOTION_DDOT":0}]
